OBJECT_NAME,OBJECT_ID,EPOCH,MEAN_MOTION,ECCENTRICITY,INCLINATION,RA_OF_ASC_NODE,ARG_OF_PERICENTER,MEAN_ANOMALY,EPHEMERIS_TYPE,CLASSIFICATION_TYPE,NORAD_CAT_ID,ELEMENT_SET_NO,REV_AT_EPOCH,BSTAR,MEAN_MOTION_DOT,MEAN_MOTION_DDOT
ONEWEB-0236,2021-045AG,2026-06-06T23:37:10.988544,13.15547370,.00020434,87.9000,261.2392,103.3768,256.7590,0,U,48797,999,24291,.1269933E-3,.61E-6,0
ONEWEB-0248,2021-045AH,2026-06-06T23:55:24.924000,13.15546810,.00015102,87.9012,261.2189,110.7578,249.3714,0,U,48798,999,24307,-.12063991E-3,-.33E-6,0
ONEWEB-0225,2021-045AJ,2026-06-06T15:19:46.480224,13.15548486,.0001362,87.9005,261.2991,99.4937,260.6348,0,U,48799,999,24303,.22683E-3,.98E-6,0
ONEWEB-0215,2021-045AK,2026-06-06T23:44:00.066624,13.15551009,.00012345,87.9007,261.2109,106.8714,253.2552,0,U,48800,999,24295,.10207769E-4,.17E-6,0
ONEWEB-0216,2021-045AL,2026-06-06T23:57:43.596864,13.15547915,.00019956,87.9013,261.2243,98.5622,261.5734,0,U,48801,999,24296,-.34344252E-3,-.116E-5,0
ONEWEB-0239,2021-045AM,2026-06-07T00:04:33.779136,13.15547955,.00013195,87.9000,261.2306,118.5529,241.5734,0,U,48802,999,24300,-.50283852E-3,-.176E-5,0
ONEWEB-0249,2021-060A,2026-06-06T22:41:14.140320,13.16594700,.0002007,87.9102,230.8117,102.8373,257.2982,0,U,48967,999,23826,.11703466E-3,.58E-6,0
ONEWEB-0250,2021-060B,2026-06-06T15:59:52.367712,13.25833057,.00023822,87.9088,228.6576,122.6784,237.4582,0,U,48968,999,23882,-.32777504E-3,-.131E-5,0
ONEWEB-0252,2021-060D,2026-06-06T16:07:56.423712,13.16593477,.00020006,87.9109,230.8577,93.1987,266.9373,0,U,48970,999,23827,.27558601E-4,.23E-6,0
ONEWEB-0253,2021-060E,2026-06-06T23:09:43.455456,13.16592530,.00020843,87.9106,230.8050,104.5275,255.6087,0,U,48971,999,23824,-.18713959E-3,-.59E-6,0
ONEWEB-0254,2021-060F,2026-06-06T16:05:40.172640,13.16593978,.00018454,87.9112,230.8606,107.1183,253.0151,0,U,48972,999,23820,-.17038752E-3,-.52E-6,0
ONEWEB-0255,2021-060G,2026-06-06T22:28:41.657664,13.16594687,.00018773,87.9098,230.8154,101.4992,258.6350,0,U,48973,999,23831,.11712411E-3,.58E-6,0
ONEWEB-0256,2021-060H,2026-06-06T15:48:32.894784,13.16593036,.00021158,87.9099,230.8749,96.8637,263.2735,0,U,48974,999,23824,.17341967E-3,.79E-6,0
ONEWEB-0257,2021-060J,2026-06-06T14:45:51.858720,13.16593851,.00019156,87.9105,230.8704,96.4349,263.7000,0,U,48975,999,23819,-.11677053E-3,-.32E-6,0
ONEWEB-0258,2021-060K,2026-06-06T14:48:08.807040,13.16593912,.0002027,87.9105,230.8820,100.7565,259.3794,0,U,48976,999,23820,-.15106018E-3,-.45E-6,0
ONEWEB-0259,2021-060L,2026-06-06T11:00:09.730080,13.16594757,.00019423,87.9104,230.9124,103.7913,256.3434,0,U,48977,999,23821,.35169156E-4,.26E-6,0
ONEWEB-0260,2021-060M,2026-06-06T16:15:54.890496,13.16593916,.00021154,87.9097,230.8712,87.8791,272.2582,0,U,48978,999,23822,.32326512E-4,.25E-6,0
ONEWEB-0261,2021-060N,2026-06-06T15:32:35.587104,13.16595587,.00016888,87.9098,230.8768,94.9186,265.2138,0,U,48979,999,23827,.32006231E-3,.135E-5,0
ONEWEB-0262,2021-060P,2026-06-06T22:21:51.146208,13.16594300,.00019703,87.9098,230.8063,107.2240,252.9106,0,U,48980,999,23827,-.10513273E-3,-.27E-6,0
ONEWEB-0263,2021-060Q,2026-06-06T15:49:42.445056,13.16594427,.00016883,87.9103,230.8718,99.6806,260.4515,0,U,48981,999,23820,.32495675E-3,.137E-5,0
ONEWEB-0264,2021-060R,2026-06-06T14:53:51.454752,13.16594117,.00019259,87.9100,230.8825,93.3483,266.7869,0,U,48982,999,23820,-.12709564E-3,-.36E-6,0
ONEWEB-0266,2021-060T,2026-06-06T15:24:37.528128,13.16593261,.00021023,87.9103,230.8688,100.6544,259.4824,0,U,48984,999,23819,.15873631E-3,.74E-6,0
ONEWEB-0267,2021-060U,2026-06-06T15:40:35.407776,13.16594053,.00018305,87.9104,230.8631,96.7346,263.3993,0,U,48985,999,23820,.26890106E-3,.116E-5,0
ONEWEB-0268,2021-060V,2026-06-06T22:12:43.612128,13.16594976,.00021258,87.9104,230.8188,95.6404,264.4969,0,U,48986,999,23850,-.32633569E-3,-.112E-5,0
ONEWEB-0269,2021-060W,2026-06-06T14:27:37.839456,13.16594193,.00022429,87.9096,230.8868,95.5659,264.5728,0,U,48987,999,23823,-.32868533E-4,0,0
ONEWEB-0270,2021-060X,2026-06-06T22:10:27.308352,13.16593637,.00017413,87.9105,230.8209,105.4150,254.7173,0,U,48988,999,23831,-.21855559E-3,-.71E-6,0
ONEWEB-0271,2021-060Y,2026-06-06T14:34:28.248960,13.16594558,.00017437,87.9102,230.8737,98.4898,261.6431,0,U,48989,999,23827,-.13374259E-3,-.38E-6,0
ONEWEB-0272,2021-060Z,2026-06-06T22:24:06.433920,13.16595823,.00019347,87.9102,230.8208,90.7683,269.3670,0,U,48990,999,23826,.11858869E-4,.17E-6,0
ONEWEB-0273,2021-060AA,2026-06-06T22:56:03.204096,13.16593914,.00019019,87.9110,230.8156,100.5435,259.5910,0,U,48991,999,23824,.20262461E-3,.9E-6,0
ONEWEB-0274,2021-060AB,2026-06-06T16:14:46.372704,13.16593147,.00021552,87.9106,230.8733,92.8700,267.2677,0,U,48992,999,23824,-.50689305E-3,-.181E-5,0
