[
  {
    "name": "ONEWEB-0236",
    "noradId": "48797",
    "line1": "1 48797U 21045AG  26157.98415496  .00000061  00000+0  12699-3 0  9990",
    "line2": "2 48797  87.9000 261.2392 0002043 103.3768 256.7590 13.15547370242911"
  },
  {
    "name": "ONEWEB-0248",
    "noradId": "48798",
    "line1": "1 48798U 21045AH  26157.99681625 -.00000033  00000+0 -12064-3 0  9998",
    "line2": "2 48798  87.9012 261.2189 0001510 110.7578 249.3714 13.15546810243070"
  },
  {
    "name": "ONEWEB-0225",
    "noradId": "48799",
    "line1": "1 48799U 21045AJ  26157.63873241  .00000098  00000+0  22683-3 0  9994",
    "line2": "2 48799  87.9005 261.2991 0001362  99.4937 260.6348 13.15548486243037"
  },
  {
    "name": "ONEWEB-0215",
    "noradId": "48800",
    "line1": "1 48800U 21045AK  26157.98888966  .00000017  00000+0  10208-4 0  9997",
    "line2": "2 48800  87.9007 261.2109 0001234 106.8714 253.2552 13.15551009242957"
  },
  {
    "name": "ONEWEB-0216",
    "noradId": "48801",
    "line1": "1 48801U 21045AL  26157.99842126 -.00000116  00000+0 -34344-3 0  9995",
    "line2": "2 48801  87.9013 261.2243 0001995  98.5622 261.5734 13.15547915242969"
  },
  {
    "name": "ONEWEB-0239",
    "noradId": "48802",
    "line1": "1 48802U 21045AM  26158.00316874 -.00000176  00000+0 -50284-3 0  9992",
    "line2": "2 48802  87.9000 261.2306 0001319 118.5529 241.5734 13.15547955243003"
  },
  {
    "name": "ONEWEB-0249",
    "noradId": "48967",
    "line1": "1 48967U 21060A   26157.94530255  .00000058  00000+0  11703-3 0  9994",
    "line2": "2 48967  87.9102 230.8117 0002007 102.8373 257.2982 13.16594700238260"
  },
  {
    "name": "ONEWEB-0250",
    "noradId": "48968",
    "line1": "1 48968U 21060B   26157.66657833 -.00000131  00000+0 -32778-3 0  9995",
    "line2": "2 48968  87.9088 228.6576 0002382 122.6784 237.4582 13.25833057238829"
  },
  {
    "name": "ONEWEB-0252",
    "noradId": "48970",
    "line1": "1 48970U 21060D   26157.67218083  .00000023  00000+0  27559-4 0  9999",
    "line2": "2 48970  87.9109 230.8577 0002000  93.1987 266.9373 13.16593477238279"
  },
  {
    "name": "ONEWEB-0253",
    "noradId": "48971",
    "line1": "1 48971U 21060E   26157.96508629 -.00000059  00000+0 -18714-3 0  9993",
    "line2": "2 48971  87.9106 230.8050 0002084 104.5275 255.6087 13.16592530238245"
  },
  {
    "name": "ONEWEB-0254",
    "noradId": "48972",
    "line1": "1 48972U 21060F   26157.67060385 -.00000052  00000+0 -17039-3 0  9996",
    "line2": "2 48972  87.9112 230.8606 0001845 107.1183 253.0151 13.16593978238208"
  },
  {
    "name": "ONEWEB-0255",
    "noradId": "48973",
    "line1": "1 48973U 21060G   26157.93659326  .00000058  00000+0  11712-3 0  9991",
    "line2": "2 48973  87.9098 230.8154 0001877 101.4992 258.6350 13.16594687238312"
  },
  {
    "name": "ONEWEB-0256",
    "noradId": "48974",
    "line1": "1 48974U 21060H   26157.65871406  .00000079  00000+0  17342-3 0  9994",
    "line2": "2 48974  87.9099 230.8749 0002115  96.8637 263.2735 13.16593036238241"
  },
  {
    "name": "ONEWEB-0257",
    "noradId": "48975",
    "line1": "1 48975U 21060J   26157.61518355 -.00000032  00000+0 -11677-3 0  9998",
    "line2": "2 48975  87.9105 230.8704 0001915  96.4349 263.7000 13.16593851238193"
  },
  {
    "name": "ONEWEB-0258",
    "noradId": "48976",
    "line1": "1 48976U 21060K   26157.61676860 -.00000045  00000+0 -15106-3 0  9990",
    "line2": "2 48976  87.9105 230.8820 0002027 100.7565 259.3794 13.16593912238208"
  },
  {
    "name": "ONEWEB-0259",
    "noradId": "48977",
    "line1": "1 48977U 21060L   26157.45844595  .00000026  00000+0  35169-4 0  9994",
    "line2": "2 48977  87.9104 230.9124 0001942 103.7913 256.3434 13.16594757238218"
  },
  {
    "name": "ONEWEB-0260",
    "noradId": "48978",
    "line1": "1 48978U 21060M   26157.67771864  .00000025  00000+0  32327-4 0  9999",
    "line2": "2 48978  87.9097 230.8712 0002115  87.8791 272.2582 13.16593916238229"
  },
  {
    "name": "ONEWEB-0261",
    "noradId": "48979",
    "line1": "1 48979U 21060N   26157.64763411  .00000135  00000+0  32006-3 0  9991",
    "line2": "2 48979  87.9098 230.8768 0001688  94.9186 265.2138 13.16595587238273"
  },
  {
    "name": "ONEWEB-0262",
    "noradId": "48980",
    "line1": "1 48980U 21060P   26157.93184197 -.00000027  00000+0 -10513-3 0  9994",
    "line2": "2 48980  87.9098 230.8063 0001970 107.2240 252.9106 13.16594300238276"
  },
  {
    "name": "ONEWEB-0263",
    "noradId": "48981",
    "line1": "1 48981U 21060Q   26157.65951904  .00000137  00000+0  32496-3 0  9996",
    "line2": "2 48981  87.9103 230.8718 0001688  99.6806 260.4515 13.16594427238200"
  },
  {
    "name": "ONEWEB-0264",
    "noradId": "48982",
    "line1": "1 48982U 21060R   26157.62073443 -.00000036  00000+0 -12710-3 0  9994",
    "line2": "2 48982  87.9100 230.8825 0001925  93.3483 266.7869 13.16594117238200"
  },
  {
    "name": "ONEWEB-0266",
    "noradId": "48984",
    "line1": "1 48984U 21060T   26157.64210102  .00000074  00000+0  15874-3 0  9997",
    "line2": "2 48984  87.9103 230.8688 0002102 100.6544 259.4824 13.16593261238197"
  },
  {
    "name": "ONEWEB-0267",
    "noradId": "48985",
    "line1": "1 48985U 21060U   26157.65318759  .00000116  00000+0  26890-3 0  9993",
    "line2": "2 48985  87.9104 230.8631 0001830  96.7346 263.3993 13.16594053238202"
  },
  {
    "name": "ONEWEB-0268",
    "noradId": "48986",
    "line1": "1 48986U 21060V   26157.92550477 -.00000112  00000+0 -32634-3 0  9990",
    "line2": "2 48986  87.9104 230.8188 0002125  95.6404 264.4969 13.16594976238503"
  },
  {
    "name": "ONEWEB-0269",
    "noradId": "48987",
    "line1": "1 48987U 21060W   26157.60252129  .00000000  00000+0 -32869-4 0  9995",
    "line2": "2 48987  87.9096 230.8868 0002242  95.5659 264.5728 13.16594193238235"
  },
  {
    "name": "ONEWEB-0270",
    "noradId": "48988",
    "line1": "1 48988U 21060X   26157.92392718 -.00000071  00000+0 -21856-3 0  9992",
    "line2": "2 48988  87.9105 230.8209 0001741 105.4150 254.7173 13.16593637238312"
  },
  {
    "name": "ONEWEB-0271",
    "noradId": "48989",
    "line1": "1 48989U 21060Y   26157.60727140 -.00000038  00000+0 -13374-3 0  9998",
    "line2": "2 48989  87.9102 230.8737 0001743  98.4898 261.6431 13.16594558238270"
  },
  {
    "name": "ONEWEB-0272",
    "noradId": "48990",
    "line1": "1 48990U 21060Z   26157.93340780  .00000017  00000+0  11859-4 0  9999",
    "line2": "2 48990  87.9102 230.8208 0001934  90.7683 269.3670 13.16595823238269"
  },
  {
    "name": "ONEWEB-0273",
    "noradId": "48991",
    "line1": "1 48991U 21060AA  26157.95559264  .00000090  00000+0  20262-3 0  9999",
    "line2": "2 48991  87.9110 230.8156 0001901 100.5435 259.5910 13.16593914238245"
  },
  {
    "name": "ONEWEB-0274",
    "noradId": "48992",
    "line1": "1 48992U 21060AB  26157.67692561 -.00000181  00000+0 -50689-3 0  9996",
    "line2": "2 48992  87.9106 230.8733 0002155  92.8700 267.2677 13.16593147238246"
  }
]